[4692192016hq3]
absolute_magnitude             = 24.199999999999999
albedo                         = 0.14999999999999999
coord_func                     = comet_orbit
minor_planet_number            = 469219
name                           = 2016 HO3
orbit_ArgOfPericenter          = 307.22764000000001
orbit_AscendingNode            = 66.513210000000001
orbit_Eccentricity             = 0.1041435
orbit_Epoch                    = 2457600.5
orbit_Inclination              = 7.7714400000000001
orbit_MeanAnomaly              = 297.53217999999998
orbit_MeanMotion               = 0.98379205000000003
orbit_SemiMajorAxis            = 1.0012300000000001
radius                         = 1
type                           = asteroid

[48pjohnson]
absolute_magnitude             = 10
albedo                         = 0.1
coord_func                     = comet_orbit
dust_brightnessfactor          = 1.5
dust_lengthfactor              = 0.40000000000000002
dust_widthfactor               = 1.5
name                           = 48P/Johnson
orbit_ArgOfPericenter          = 216.7456
orbit_AscendingNode            = 110.0896
orbit_Eccentricity             = 0.427113
orbit_Epoch                    = 2460029.5
orbit_Inclination              = 12.2005
orbit_PericenterDistance       = 2.005716
orbit_TimeAtPericenter         = 2460736.9279
orbit_good                     = 519
radius                         = 5
slope_parameter                = 6
type                           = comet

[4vesta]
absolute_magnitude             = 3.0
albedo                         = 0.4228
color_index_bv                 = 0.782
coord_func                     = comet_orbit
minor_planet_number            = 4
model                          = 4vesta_21_MLfix.obj
name                           = Vesta
oblateness                     = 0.0
orbit_ArgOfPericenter          = 151.59911
orbit_AscendingNode            = 103.75733
orbit_Eccentricity             = 0.0887575
orbit_Epoch                    = 2460000.5
orbit_Inclination              = 7.13926
orbit_MeanAnomaly              = 115.13302
orbit_MeanMotion               = 0.27133009
orbit_SemiMajorAxis            = 2.3630382
orbit_visualization_period     = 1325.314867254217
radius                         = 262.7
rot_pole_de                    = 42.235
rot_pole_ra                    = 309.031
rot_pole_w0                    = 285.39
rot_pole_w1                    = 1617.3329428
rot_rotation_offset            = 210
slope_parameter                = 0.32
spec_b                         = V
spec_t                         = V
tex_map                        = vesta.png
type                           = asteroid

[50000quaoar]
absolute_magnitude             = 2.4
albedo                         = 0.16
coord_func                     = comet_orbit
minor_planet_number            = 50000
name                           = Quaoar
orbit_ArgOfPericenter          = 157.69917
orbit_AscendingNode            = 189.10111
orbit_Eccentricity             = 0.0402881
orbit_Epoch                    = 2460000.5
orbit_Inclination              = 7.99129
orbit_MeanAnomaly              = 294.4204
orbit_MeanMotion               = 0.00344866
orbit_SemiMajorAxis            = 43.3879596
orbit_visualization_period     = 104638.6456476030
radius                         = 1037
type                           = cubewano

[51pharrington]
absolute_magnitude             = 10
albedo                         = 0.1
coord_func                     = comet_orbit
dust_brightnessfactor          = 1.5
dust_lengthfactor              = 0.4
dust_widthfactor               = 1.5
name                           = 51P/Harrington
orbit_ArgOfPericenter          = 269.2548
orbit_AscendingNode            = 83.6616
orbit_Eccentricity             = 0.543436
orbit_Epoch                    = 2460029.5
orbit_Inclination              = 5.4264
orbit_PericenterDistance       = 1.692526
orbit_TimeAtPericenter         = 2459853.7747
orbit_good                     = 404
radius                         = 5
slope_parameter                = 8
type                           = comet

[5261eureka]
absolute_magnitude             = 16.1
albedo                         = 0.182
coord_func                     = comet_orbit
minor_planet_number            = 5261
name                           = Eureka
orbit_ArgOfPericenter          = 95.53085
orbit_AscendingNode            = 245.01987
orbit_Eccentricity             = 0.0648448
orbit_Epoch                    = 2460000.5
orbit_Inclination              = 20.282
orbit_MeanAnomaly              = 67.92488
orbit_MeanMotion               = 0.5240994
orbit_SemiMajorAxis            = 1.5235625
radius                         = 0.939
spec_b                         = Sr
type                           = asteroid

[53pvanbiesbroeck]
absolute_magnitude             = 7.7
albedo                         = 0.1
coord_func                     = comet_orbit
dust_brightnessfactor          = 1.5
dust_lengthfactor              = 0.40000000000000002
dust_widthfactor               = 1.5
name                           = 53P/Van Biesbroeck
orbit_ArgOfPericenter          = 134.4913
orbit_AscendingNode            = 148.8234
orbit_Eccentricity             = 0.550433
orbit_Epoch                    = 2460029.5
orbit_Inclination              = 6.608
orbit_PericenterDistance       = 2.442339
orbit_TimeAtPericenter         = 2462131.8606
orbit_good                     = 690
radius                         = 5
slope_parameter                = 4.8
type                           = comet

[556372002ux25]
absolute_magnitude             = 3.8
albedo                         = 0.15
coord_func                     = comet_orbit
minor_planet_number            = 55637
name                           = 2002 UX25
orbit_ArgOfPericenter          = 274.96751
orbit_AscendingNode            = 204.5433
orbit_Eccentricity             = 0.1429331
orbit_Epoch                    = 2460000.5
orbit_Inclination              = 19.38226
orbit_MeanAnomaly              = 306.66964
orbit_MeanMotion               = 0.00350266
orbit_SemiMajorAxis            = 42.9408913
radius                         = 597
type                           = cubewano

[62ptsuchinshan]
absolute_magnitude             = 8
albedo                         = 0.1
coord_func                     = comet_orbit
dust_brightnessfactor          = 1.5
dust_lengthfactor              = 0.40000000000000002
dust_widthfactor               = 1.5
name                           = 62P/Tsuchinshan
orbit_ArgOfPericenter          = 47.3166
orbit_AscendingNode            = 68.6784
orbit_Eccentricity             = 0.624902
orbit_Epoch                    = 2460029.5
orbit_Inclination              = 4.7363
orbit_PericenterDistance       = 1.264112
orbit_TimeAtPericenter         = 2460303.5244
orbit_good                     = 297
radius                         = 5
slope_parameter                = 10
type                           = comet

[64pswiftgehrels]
absolute_magnitude             = 8.5
albedo                         = 0.1
coord_func                     = comet_orbit
dust_brightnessfactor          = 1.5
dust_lengthfactor              = 0.40000000000000002
dust_widthfactor               = 1.5
name                           = 64P/Swift-Gehrels
orbit_ArgOfPericenter          = 97.1721
orbit_AscendingNode            = 299.8985
orbit_Eccentricity             = 0.688691
orbit_Epoch                    = 2460029.5
orbit_Inclination              = 8.9491
orbit_PericenterDistance       = 1.386121
orbit_TimeAtPericenter         = 2458428.206
orbit_good                     = 300
radius                         = 5
slope_parameter                = 12
type                           = comet

[66pdutoit]
absolute_magnitude             = 12
albedo                         = 0.1
coord_func                     = comet_orbit
dust_brightnessfactor          = 1.5
dust_lengthfactor              = 0.40000000000000002
dust_widthfactor               = 1.5
name                           = 66P/du Toit
orbit_ArgOfPericenter          = 257.29230000000001
orbit_AscendingNode            = 21.895399999999999
orbit_Eccentricity             = 0.78680399999999995
orbit_Inclination              = 18.677900000000001
orbit_PericenterDistance       = 1.2885139999999999
orbit_TimeAtPericenter         = 2458257.7086921297
orbit_good                     = 267
radius                         = 5
slope_parameter                = 3.6
type                           = comet

